HTV-X1                  
1 66174U 25241A   26061.93054996  .00009325  00000+0  18075-3 0  9990
2 66174  51.6319 105.7724 0008215 150.8374 209.3075 15.48408287554479
SZ-21 MODULE            
1 66515U 25246C   26061.55898934  .00039531  00000+0  34908-3 0  9995
2 66515  41.4734 247.2373 0001469 286.7563  73.3117 15.67907744 16956
SHENZHOU-22             
1 66645U 25272A   26061.80363536  .00017409  00000+0  21017-3 0  9998
2 66645  41.4651 250.0496 0006616 230.1207 129.9050 15.60315912267521
SOYUZ-MS 28             
1 66664U 25275A   26061.93054996  .00009325  00000+0  18075-3 0  9991
2 66664  51.6319 105.7724 0008215 150.8374 209.3075 15.48408287554529
DUPLEX                  
1 66906U 98067XS  26061.52117925  .00034684  00000+0  49960-3 0  9999
2 66906  51.6288 105.2931 0001992  86.7096 273.4123 15.55686663 14016
ISS OBJECT XT           
1 66907U 98067XT  26061.38090324  .00143858  00000+0  13163-2 0  9996
2 66907  51.6255 102.8461 0004459  34.6352 325.4933 15.66818692 14030
ISS OBJECT XU           
1 66908U 98067XU  26061.37957648  .00140929  00000+0  12855-2 0  9990
2 66908  51.6250 102.8343 0004597  37.1360 322.9953 15.66905341 14037
SILVERSAT               
1 66909U 98067XV  26061.52021951  .00171520  00000+0  14132-2 0  9998
2 66909  51.6251 101.5236 0005331  34.6258 325.5085 15.69284404 14062
ISS OBJECT XW           
1 66910U 98067XW  26061.37324684  .00124725  00000+0  11650-2 0  9999
2 66910  51.6250 102.7876 0004747  47.1988 312.9406 15.66377500 14036
ISS OBJECT XX           
1 66911U 98067XX  26061.40259724  .00209832  00000+0  15591-2 0  9997
2 66911  51.6217 101.4735 0006901  40.4383 319.7127 15.71628066 14047
ISS OBJECT XY           
1 66912U 98067XY  26061.29234788  .00085145  00000+0  94565-3 0  9996
2 66912  51.6268 104.5116 0002805  49.1750 310.9487 15.62175836 13991
ISS OBJECT XZ           
1 67683U 98067XZ  26061.57800874  .00041593  00000+0  70185-3 0  9999
2 67683  51.6313 107.1702 0009520 162.1984 197.9341 15.51179573  3681
GXIBA-1                 
1 67684U 98067YA  26061.49636616  .00076064  00000+0  11883-2 0  9992
2 67684  51.6300 107.3750 0011044 152.3200 207.8380 15.53047483  3678
CORAL                   
1 67685U 98067YB  26061.38181274  .00046607  00000+0  77682-3 0  9996
2 67685  51.6315 108.1094 0011582 157.7573 202.3921 15.51449802  3652
ISS OBJECT YC           
1 67686U 98067YC  26061.37845320  .00051991  00000+0  85445-3 0  9993
2 67686  51.6316 108.0894 0007717 125.5885 234.5825 15.51837466  3652
LEOPARD                 
1 67687U 98067YD  26061.64081302  .00041373  00000+0  69517-3 0  9991
2 67687  51.6316 106.8408 0007695 130.3148 229.8515 15.51318584  3615
