[{"OBJECT_NAME":"HTV-X1","OBJECT_ID":"2025-241A","EPOCH":"2026-03-02T22:19:59.516544","MEAN_MOTION":15.48408287,"ECCENTRICITY":0.00082151,"INCLINATION":51.6319,"RA_OF_ASC_NODE":105.7724,"ARG_OF_PERICENTER":150.8374,"MEAN_ANOMALY":209.3075,"EPHEMERIS_TYPE":0,"CLASSIFICATION_TYPE":"U","NORAD_CAT_ID":66174,"ELEMENT_SET_NO":999,"REV_AT_EPOCH":55447,"BSTAR":0.00018074912,"MEAN_MOTION_DOT":9.325e-5,"MEAN_MOTION_DDOT":0},{"OBJECT_NAME":"SZ-21 MODULE","OBJECT_ID":"2025-246C","EPOCH":"2026-03-02T13:24:56.678976","MEAN_MOTION":15.67907744,"ECCENTRICITY":0.0001469,"INCLINATION":41.4734,"RA_OF_ASC_NODE":247.2373,"ARG_OF_PERICENTER":286.7563,"MEAN_ANOMALY":73.3117,"EPHEMERIS_TYPE":0,"CLASSIFICATION_TYPE":"U","NORAD_CAT_ID":66515,"ELEMENT_SET_NO":999,"REV_AT_EPOCH":1695,"BSTAR":0.00034908,"MEAN_MOTION_DOT":0.00039531,"MEAN_MOTION_DDOT":0},{"OBJECT_NAME":"SHENZHOU-22","OBJECT_ID":"2025-272A","EPOCH":"2026-03-02T19:17:14.095104","MEAN_MOTION":15.60315912,"ECCENTRICITY":0.00066169,"INCLINATION":41.4651,"RA_OF_ASC_NODE":250.0496,"ARG_OF_PERICENTER":230.1207,"MEAN_ANOMALY":129.905,"EPHEMERIS_TYPE":0,"CLASSIFICATION_TYPE":"U","NORAD_CAT_ID":66645,"ELEMENT_SET_NO":999,"REV_AT_EPOCH":26752,"BSTAR":0.00021016754,"MEAN_MOTION_DOT":0.00017409,"MEAN_MOTION_DDOT":0},{"OBJECT_NAME":"SOYUZ-MS 28","OBJECT_ID":"2025-275A","EPOCH":"2026-03-02T22:19:59.516544","MEAN_MOTION":15.48408287,"ECCENTRICITY":0.00082151,"INCLINATION":51.6319,"RA_OF_ASC_NODE":105.7724,"ARG_OF_PERICENTER":150.8374,"MEAN_ANOMALY":209.3075,"EPHEMERIS_TYPE":0,"CLASSIFICATION_TYPE":"U","NORAD_CAT_ID":66664,"ELEMENT_SET_NO":999,"REV_AT_EPOCH":55452,"BSTAR":0.00018074912,"MEAN_MOTION_DOT":9.325e-5,"MEAN_MOTION_DDOT":0},{"OBJECT_NAME":"DUPLEX","OBJECT_ID":"1998-067XS","EPOCH":"2026-03-02T12:30:29.887200","MEAN_MOTION":15.55686663,"ECCENTRICITY":0.0001992,"INCLINATION":51.6288,"RA_OF_ASC_NODE":105.2931,"ARG_OF_PERICENTER":86.7096,"MEAN_ANOMALY":273.4123,"EPHEMERIS_TYPE":0,"CLASSIFICATION_TYPE":"U","NORAD_CAT_ID":66906,"ELEMENT_SET_NO":999,"REV_AT_EPOCH":1401,"BSTAR":0.0004996,"MEAN_MOTION_DOT":0.00034684,"MEAN_MOTION_DDOT":0},{"OBJECT_NAME":"ISS OBJECT XT","OBJECT_ID":"1998-067XT","EPOCH":"2026-03-02T09:08:30.039936","MEAN_MOTION":15.66818692,"ECCENTRICITY":0.00044593,"INCLINATION":51.6255,"RA_OF_ASC_NODE":102.8461,"ARG_OF_PERICENTER":34.6352,"MEAN_ANOMALY":325.4933,"EPHEMERIS_TYPE":0,"CLASSIFICATION_TYPE":"U","NORAD_CAT_ID":66907,"ELEMENT_SET_NO":999,"REV_AT_EPOCH":1403,"BSTAR":0.0013162539,"MEAN_MOTION_DOT":0.00143858,"MEAN_MOTION_DDOT":0},{"OBJECT_NAME":"ISS OBJECT XU","OBJECT_ID":"1998-067XU","EPOCH":"2026-03-02T09:06:35.407872","MEAN_MOTION":15.66905341,"ECCENTRICITY":0.00045972,"INCLINATION":51.625,"RA_OF_ASC_NODE":102.8343,"ARG_OF_PERICENTER":37.136,"MEAN_ANOMALY":322.9953,"EPHEMERIS_TYPE":0,"CLASSIFICATION_TYPE":"U","NORAD_CAT_ID":66908,"ELEMENT_SET_NO":999,"REV_AT_EPOCH":1403,"BSTAR":0.0012854784,"MEAN_MOTION_DOT":0.00140929,"MEAN_MOTION_DDOT":0},{"OBJECT_NAME":"SILVERSAT","OBJECT_ID":"1998-067XV","EPOCH":"2026-03-02T12:29:06.965664","MEAN_MOTION":15.69284404,"ECCENTRICITY":0.0005331,"INCLINATION":51.6251,"RA_OF_ASC_NODE":101.5236,"ARG_OF_PERICENTER":34.6258,"MEAN_ANOMALY":325.5085,"EPHEMERIS_TYPE":0,"CLASSIFICATION_TYPE":"U","NORAD_CAT_ID":66909,"ELEMENT_SET_NO":999,"REV_AT_EPOCH":1406,"BSTAR":0.0014132,"MEAN_MOTION_DOT":0.0017152,"MEAN_MOTION_DDOT":0},{"OBJECT_NAME":"ISS OBJECT XW","OBJECT_ID":"1998-067XW","EPOCH":"2026-03-02T08:57:28.526976","MEAN_MOTION":15.663775,"ECCENTRICITY":0.00047476,"INCLINATION":51.625,"RA_OF_ASC_NODE":102.7876,"ARG_OF_PERICENTER":47.1988,"MEAN_ANOMALY":312.9406,"EPHEMERIS_TYPE":0,"CLASSIFICATION_TYPE":"U","NORAD_CAT_ID":66910,"ELEMENT_SET_NO":999,"REV_AT_EPOCH":1403,"BSTAR":0.0011650016,"MEAN_MOTION_DOT":0.00124725,"MEAN_MOTION_DDOT":0},{"OBJECT_NAME":"ISS OBJECT XX","OBJECT_ID":"1998-067XX","EPOCH":"2026-03-02T09:39:44.401536","MEAN_MOTION":15.71628066,"ECCENTRICITY":0.0006901,"INCLINATION":51.6217,"RA_OF_ASC_NODE":101.4735,"ARG_OF_PERICENTER":40.4383,"MEAN_ANOMALY":319.7127,"EPHEMERIS_TYPE":0,"CLASSIFICATION_TYPE":"U","NORAD_CAT_ID":66911,"ELEMENT_SET_NO":999,"REV_AT_EPOCH":1404,"BSTAR":0.0015590665,"MEAN_MOTION_DOT":0.00209832,"MEAN_MOTION_DDOT":0},{"OBJECT_NAME":"ISS OBJECT XY","OBJECT_ID":"1998-067XY","EPOCH":"2026-03-02T07:00:58.856832","MEAN_MOTION":15.62175836,"ECCENTRICITY":0.00028056,"INCLINATION":51.6268,"RA_OF_ASC_NODE":104.5116,"ARG_OF_PERICENTER":49.175,"MEAN_ANOMALY":310.9487,"EPHEMERIS_TYPE":0,"CLASSIFICATION_TYPE":"U","NORAD_CAT_ID":66912,"ELEMENT_SET_NO":999,"REV_AT_EPOCH":1399,"BSTAR":0.0009456523,"MEAN_MOTION_DOT":0.00085145,"MEAN_MOTION_DDOT":0},{"OBJECT_NAME":"ISS OBJECT XZ","OBJECT_ID":"1998-067XZ","EPOCH":"2026-03-02T13:52:19.955136","MEAN_MOTION":15.51179573,"ECCENTRICITY":0.000952,"INCLINATION":51.6313,"RA_OF_ASC_NODE":107.1702,"ARG_OF_PERICENTER":162.1984,"MEAN_ANOMALY":197.9341,"EPHEMERIS_TYPE":0,"CLASSIFICATION_TYPE":"U","NORAD_CAT_ID":67683,"ELEMENT_SET_NO":999,"REV_AT_EPOCH":368,"BSTAR":0.00070185,"MEAN_MOTION_DOT":0.00041593,"MEAN_MOTION_DDOT":0},{"OBJECT_NAME":"GXIBA-1","OBJECT_ID":"1998-067YA","EPOCH":"2026-03-02T11:54:46.036224","MEAN_MOTION":15.53047483,"ECCENTRICITY":0.00110442,"INCLINATION":51.63,"RA_OF_ASC_NODE":107.375,"ARG_OF_PERICENTER":152.32,"MEAN_ANOMALY":207.838,"EPHEMERIS_TYPE":0,"CLASSIFICATION_TYPE":"U","NORAD_CAT_ID":67684,"ELEMENT_SET_NO":999,"REV_AT_EPOCH":367,"BSTAR":0.0011883441,"MEAN_MOTION_DOT":0.00076064,"MEAN_MOTION_DDOT":0},{"OBJECT_NAME":"CORAL","OBJECT_ID":"1998-067YB","EPOCH":"2026-03-02T09:09:48.620736","MEAN_MOTION":15.51449802,"ECCENTRICITY":0.00115824,"INCLINATION":51.6315,"RA_OF_ASC_NODE":108.1094,"ARG_OF_PERICENTER":157.7573,"MEAN_ANOMALY":202.3921,"EPHEMERIS_TYPE":0,"CLASSIFICATION_TYPE":"U","NORAD_CAT_ID":67685,"ELEMENT_SET_NO":999,"REV_AT_EPOCH":365,"BSTAR":0.00077682183,"MEAN_MOTION_DOT":0.00046607,"MEAN_MOTION_DDOT":0},{"OBJECT_NAME":"ISS OBJECT YC","OBJECT_ID":"1998-067YC","EPOCH":"2026-03-02T09:04:58.356480","MEAN_MOTION":15.51837466,"ECCENTRICITY":0.00077178,"INCLINATION":51.6316,"RA_OF_ASC_NODE":108.0894,"ARG_OF_PERICENTER":125.5885,"MEAN_ANOMALY":234.5825,"EPHEMERIS_TYPE":0,"CLASSIFICATION_TYPE":"U","NORAD_CAT_ID":67686,"ELEMENT_SET_NO":999,"REV_AT_EPOCH":365,"BSTAR":0.00085444662,"MEAN_MOTION_DOT":0.00051991,"MEAN_MOTION_DDOT":0},{"OBJECT_NAME":"LEOPARD","OBJECT_ID":"1998-067YD","EPOCH":"2026-03-02T15:22:46.244928","MEAN_MOTION":15.51318584,"ECCENTRICITY":0.0007695,"INCLINATION":51.6316,"RA_OF_ASC_NODE":106.8408,"ARG_OF_PERICENTER":130.3148,"MEAN_ANOMALY":229.8515,"EPHEMERIS_TYPE":0,"CLASSIFICATION_TYPE":"U","NORAD_CAT_ID":67687,"ELEMENT_SET_NO":999,"REV_AT_EPOCH":361,"BSTAR":0.00069517,"MEAN_MOTION_DOT":0.00041373,"MEAN_MOTION_DDOT":0}]
